COSMOS 2251 DEB         
1 40792U 93036BVV 17345.82626337  .00000525  00000-0  14857-3 0  9990
2 40792  74.0515 151.4206 0026482 274.0826 151.4681 14.47896166346760
